{"fetched_at":"2026-03-29T16:36:15Z","count":15609,"tles":[{"name":"STARLINK-30213","line1":"1 57504U 23113K   26087.78571524  .00003922  00000+0  15582-3 0  9992","line2":"2 57504  42.9998 268.3808 0001609 274.0690  85.9977 15.26742922146593","category":"Starlink"}]}