{
  "norad_id": 57504,
  "name": "STARLINK-30213",
  "history": [
    {
      "epoch": "2026-03-28T18:51:25.796736",
      "apogee_km": 486.6613967312105,
      "perigee_km": 484.4521109857187,
      "latitude_deg": -42.973175290980066,
      "longitude_deg": 5.8286630399525166,
      "semi_major_axis_km": 6863.693753858464,
      "eccentricity": 0.00016094,
      "inclination_deg": 42.9998,
      "raan_deg": 268.3808,
      "arg_perigee_deg": 274.069,
      "mean_anomaly_deg": 85.9977,
      "mean_motion_rev_day": 15.26742922
    }
  ]
}